CCSDS_OMM_VERS = 2.0
CREATION_DATE  = 
ORIGINATOR     = 

OBJECT_NAME    = UNKNOWN
OBJECT_ID      = 
CENTER_NAME    = EARTH
REF_FRAME      = TEME
TIME_SYSTEM    = UTC
MEAN_ELEMENT_THEORY = SGP/SGP4

EPOCH          = 2025-11-01T17:02:26.918592
MEAN_MOTION    = 14.36718524
ECCENTRICITY   = .0208512
INCLINATION    = 98.0312
RA_OF_ASC_NODE = 42.8012
ARG_OF_PERICENTER = 252.1271
MEAN_ANOMALY   = 105.7079

EPHEMERIS_TYPE = 0
CLASSIFICATION_TYPE = U
NORAD_CAT_ID   = 85217
ELEMENT_SET_NO = 999
REV_AT_EPOCH   = 62196
BSTAR          = .92524E-3
MEAN_MOTION_DOT = .3453E-4
MEAN_MOTION_DDOT = 0

CCSDS_OMM_VERS = 2.0
CREATION_DATE  = 
ORIGINATOR     = 

OBJECT_NAME    = UNKNOWN
OBJECT_ID      = 
CENTER_NAME    = EARTH
REF_FRAME      = TEME
TIME_SYSTEM    = UTC
MEAN_ELEMENT_THEORY = SGP/SGP4

EPOCH          = 2025-10-28T11:57:06.048288
MEAN_MOTION    = 13.99983230
ECCENTRICITY   = .0511538
INCLINATION    = 65.5350
RA_OF_ASC_NODE = 333.5415
ARG_OF_PERICENTER = 48.4748
MEAN_ANOMALY   = 315.9051

EPHEMERIS_TYPE = 0
CLASSIFICATION_TYPE = U
NORAD_CAT_ID   = 85237
ELEMENT_SET_NO = 999
REV_AT_EPOCH   = 60201
BSTAR          = .10732E-2
MEAN_MOTION_DOT = .4906E-4
MEAN_MOTION_DDOT = 0

CCSDS_OMM_VERS = 2.0
CREATION_DATE  = 
ORIGINATOR     = 

OBJECT_NAME    = UNKNOWN
OBJECT_ID      = 
CENTER_NAME    = EARTH
REF_FRAME      = TEME
TIME_SYSTEM    = UTC
MEAN_ELEMENT_THEORY = SGP/SGP4

EPOCH          = 2025-11-02T13:39:47.685024
MEAN_MOTION    = 13.88331115
ECCENTRICITY   = .0062713
INCLINATION    = 99.0558
RA_OF_ASC_NODE = 236.9093
ARG_OF_PERICENTER = 310.0071
MEAN_ANOMALY   = 225.0343

EPHEMERIS_TYPE = 0
CLASSIFICATION_TYPE = U
NORAD_CAT_ID   = 85238
ELEMENT_SET_NO = 999
REV_AT_EPOCH   = 60526
BSTAR          = .91511E-4
MEAN_MOTION_DOT = .68E-6
MEAN_MOTION_DDOT = 0

CCSDS_OMM_VERS = 2.0
CREATION_DATE  = 
ORIGINATOR     = 

OBJECT_NAME    = UNKNOWN
OBJECT_ID      = 
CENTER_NAME    = EARTH
REF_FRAME      = TEME
TIME_SYSTEM    = UTC
MEAN_ELEMENT_THEORY = SGP/SGP4

EPOCH          = 2025-11-02T06:53:25.597248
MEAN_MOTION    = 14.21261628
ECCENTRICITY   = .0225032
INCLINATION    = 97.9881
RA_OF_ASC_NODE = 313.5897
ARG_OF_PERICENTER = 63.4614
MEAN_ANOMALY   = 298.9445

EPHEMERIS_TYPE = 0
CLASSIFICATION_TYPE = U
NORAD_CAT_ID   = 85246
ELEMENT_SET_NO = 999
REV_AT_EPOCH   = 61732
BSTAR          = .63681E-3
MEAN_MOTION_DOT = .1754E-4
MEAN_MOTION_DDOT = 0

CCSDS_OMM_VERS = 2.0
CREATION_DATE  = 
ORIGINATOR     = 

OBJECT_NAME    = UNKNOWN
OBJECT_ID      = 
CENTER_NAME    = EARTH
REF_FRAME      = TEME
TIME_SYSTEM    = UTC
MEAN_ELEMENT_THEORY = SGP/SGP4

EPOCH          = 2025-10-29T07:28:50.172384
MEAN_MOTION    = 13.99696129
ECCENTRICITY   = .0047422
INCLINATION    = 100.4213
RA_OF_ASC_NODE = 332.2652
ARG_OF_PERICENTER = 354.3652
MEAN_ANOMALY   = 66.8761

EPHEMERIS_TYPE = 0
CLASSIFICATION_TYPE = U
NORAD_CAT_ID   = 85373
ELEMENT_SET_NO = 999
REV_AT_EPOCH   = 60591
BSTAR          = .2054E-2
MEAN_MOTION_DOT = .298E-4
MEAN_MOTION_DDOT = 0

CCSDS_OMM_VERS = 2.0
CREATION_DATE  = 
ORIGINATOR     = 

OBJECT_NAME    = UNKNOWN
OBJECT_ID      = 
CENTER_NAME    = EARTH
REF_FRAME      = TEME
TIME_SYSTEM    = UTC
MEAN_ELEMENT_THEORY = SGP/SGP4

EPOCH          = 2025-11-01T15:38:44.672352
MEAN_MOTION    = 13.51580379
ECCENTRICITY   = .0057367
INCLINATION    = 100.4958
RA_OF_ASC_NODE = 267.6533
ARG_OF_PERICENTER = 340.3032
MEAN_ANOMALY   = 201.4546

EPHEMERIS_TYPE = 0
CLASSIFICATION_TYPE = U
NORAD_CAT_ID   = 87014
ELEMENT_SET_NO = 999
REV_AT_EPOCH   = 58536
BSTAR          = .46809E-2
MEAN_MOTION_DOT = .3036E-4
MEAN_MOTION_DDOT = 0

CCSDS_OMM_VERS = 2.0
CREATION_DATE  = 
ORIGINATOR     = 

OBJECT_NAME    = UNKNOWN
OBJECT_ID      = 
CENTER_NAME    = EARTH
REF_FRAME      = TEME
TIME_SYSTEM    = UTC
MEAN_ELEMENT_THEORY = SGP/SGP4

EPOCH          = 2025-11-01T08:43:51.585600
MEAN_MOTION    = 14.07000213
ECCENTRICITY   = .0043313
INCLINATION    = 98.7194
RA_OF_ASC_NODE = 350.0619
ARG_OF_PERICENTER = 210.4071
MEAN_ANOMALY   = 149.4585

EPHEMERIS_TYPE = 0
CLASSIFICATION_TYPE = U
NORAD_CAT_ID   = 87042
ELEMENT_SET_NO = 999
REV_AT_EPOCH   = 54814
BSTAR          = .5909E-3
MEAN_MOTION_DOT = .953E-5
MEAN_MOTION_DDOT = 0

CCSDS_OMM_VERS = 2.0
CREATION_DATE  = 
ORIGINATOR     = 

OBJECT_NAME    = UNKNOWN
OBJECT_ID      = 
CENTER_NAME    = EARTH
REF_FRAME      = TEME
TIME_SYSTEM    = UTC
MEAN_ELEMENT_THEORY = SGP/SGP4

EPOCH          = 2025-10-31T20:08:54.852000
MEAN_MOTION    = 13.45694732
ECCENTRICITY   = .0718712
INCLINATION    = 65.7307
RA_OF_ASC_NODE = 354.1983
ARG_OF_PERICENTER = 160.5430
MEAN_ANOMALY   = 202.4633

EPHEMERIS_TYPE = 0
CLASSIFICATION_TYPE = U
NORAD_CAT_ID   = 87051
ELEMENT_SET_NO = 999
REV_AT_EPOCH   = 58294
BSTAR          = .87935E-3
MEAN_MOTION_DOT = .2547E-4
MEAN_MOTION_DDOT = 0

CCSDS_OMM_VERS = 2.0
CREATION_DATE  = 
ORIGINATOR     = 

OBJECT_NAME    = UNKNOWN
OBJECT_ID      = 
CENTER_NAME    = EARTH
REF_FRAME      = TEME
TIME_SYSTEM    = UTC
MEAN_ELEMENT_THEORY = SGP/SGP4

EPOCH          = 2025-11-02T14:11:48.731136
MEAN_MOTION    = 14.10822807
ECCENTRICITY   = .0013551
INCLINATION    = 100.0925
RA_OF_ASC_NODE = 181.0963
ARG_OF_PERICENTER = 88.0992
MEAN_ANOMALY   = 272.1727

EPHEMERIS_TYPE = 0
CLASSIFICATION_TYPE = U
NORAD_CAT_ID   = 87054
ELEMENT_SET_NO = 999
REV_AT_EPOCH   = 61066
BSTAR          = .1329E-2
MEAN_MOTION_DOT = .2329E-4
MEAN_MOTION_DDOT = 0

CCSDS_OMM_VERS = 2.0
CREATION_DATE  = 
ORIGINATOR     = 

OBJECT_NAME    = UNKNOWN
OBJECT_ID      = 
CENTER_NAME    = EARTH
REF_FRAME      = TEME
TIME_SYSTEM    = UTC
MEAN_ELEMENT_THEORY = SGP/SGP4

EPOCH          = 2025-11-01T15:55:41.763648
MEAN_MOTION    = 13.84973430
ECCENTRICITY   = .0484612
INCLINATION    = 61.2212
RA_OF_ASC_NODE = 33.8593
ARG_OF_PERICENTER = 216.8777
MEAN_ANOMALY   = 139.8002

EPHEMERIS_TYPE = 0
CLASSIFICATION_TYPE = U
NORAD_CAT_ID   = 87071
ELEMENT_SET_NO = 999
REV_AT_EPOCH   = 59679
BSTAR          = .30494E-2
MEAN_MOTION_DOT = .8595E-4
MEAN_MOTION_DDOT = 0

CCSDS_OMM_VERS = 2.0
CREATION_DATE  = 
ORIGINATOR     = 

OBJECT_NAME    = UNKNOWN
OBJECT_ID      = 
CENTER_NAME    = EARTH
REF_FRAME      = TEME
TIME_SYSTEM    = UTC
MEAN_ELEMENT_THEORY = SGP/SGP4

EPOCH          = 2025-10-06T02:25:33.363840
MEAN_MOTION    = 15.85548661
ECCENTRICITY   = .0031772
INCLINATION    = 65.5997
RA_OF_ASC_NODE = 277.2947
ARG_OF_PERICENTER = 239.2111
MEAN_ANOMALY   = 120.5927

EPHEMERIS_TYPE = 0
CLASSIFICATION_TYPE = U
NORAD_CAT_ID   = 87113
ELEMENT_SET_NO = 999
REV_AT_EPOCH   = 62556
BSTAR          = .71219E-2
MEAN_MOTION_DOT = .1762118E-1
MEAN_MOTION_DDOT = .14827E-2

CCSDS_OMM_VERS = 2.0
CREATION_DATE  = 
ORIGINATOR     = 

OBJECT_NAME    = UNKNOWN
OBJECT_ID      = 
CENTER_NAME    = EARTH
REF_FRAME      = TEME
TIME_SYSTEM    = UTC
MEAN_ELEMENT_THEORY = SGP/SGP4

EPOCH          = 2025-10-31T23:44:33.864576
MEAN_MOTION    = 12.42793650
ECCENTRICITY   = .0034297
INCLINATION    = 102.2641
RA_OF_ASC_NODE = 35.4565
ARG_OF_PERICENTER = 164.7509
MEAN_ANOMALY   = 195.4596

EPHEMERIS_TYPE = 0
CLASSIFICATION_TYPE = U
NORAD_CAT_ID   = 87129
ELEMENT_SET_NO = 999
REV_AT_EPOCH   = 54148
BSTAR          = .16653E-2
MEAN_MOTION_DOT = .185E-5
MEAN_MOTION_DDOT = 0

